NORAD_CAT_ID,OBJECT_NAME,OBJECT_TYPE,EPOCH,MEAN_MOTION,ECCENTRICITY,INCLINATION,RA_OF_ASC_NODE,ARG_OF_PERICENTER,MEAN_ANOMALY,BSTAR,MEAN_MOTION_DOT,MEAN_MOTION_DDOT,TLE_LINE0,TLE_LINE1,TLE_LINE2,SEMIMAJOR_AXIS,PERIOD,APOGEE,PERIGEE,DECAYED
53851.0,STARLINK-4755,PAYLOAD,2023-10-20 19:46:14,15.08835009,0.0001757,53.2178,243.3619,100.2977,259.8213,-1.855e-05,-5.83e-06,0.0,0 STARLINK-4755,1 53851U 22114AK  23293.82378125 -.00000583  00000-0 -18550-4 0  9998,2 53851  53.2178 243.3619 0001757 100.2977 259.8213 15.08835009 60964,6917.896,95.438,540.976,538.545,0.0
53851.0,STARLINK-4755,PAYLOAD,2023-10-20 21:21:37,15.08834209,0.0001608,53.2178,243.0646,101.5143,258.603,-2.0275e-05,-6.11e-06,0.0,0 STARLINK-4755,1 53851U 22114AK  23293.89002175 -.00000611  00000-0 -20275-4 0  9993,2 53851  53.2178 243.0646 0001608 101.5143 258.6030 15.08834209 61512,6917.898,95.438,540.875,538.651,0.0
53851.0,STARLINK-4755,PAYLOAD,2023-10-21 13:15:29,15.08843712,0.0001458,53.2176,240.0916,92.1791,267.9368,0.00052509,8.08e-05,0.0,0 STARLINK-4755,1 53851U 22114AK  23294.55242254  .00008080  00000-0  52509-3 0  9991,2 53851  53.2176 240.0916 0001458  92.1791 267.9368 15.08843712 61611,6917.869,95.437,540.743,538.725,0.0
53851.0,STARLINK-4755,PAYLOAD,2023-10-22 03:33:56,15.08866198,0.0001473,53.2172,237.4159,96.0905,264.0255,0.00086296,0.00013482,0.0,0 STARLINK-4755,1 53851U 22114AK  23295.14857479  .00013482  00000-0  86296-3 0  9990,2 53851  53.2172 237.4159 0001473  96.0905 264.0255 15.08866198 61169,6917.8,95.436,540.684,538.646,0.0
53851.0,STARLINK-4755,PAYLOAD,2023-10-22 13:06:15,15.08855632,0.0001953,53.2175,235.6307,76.0719,284.049,0.00030028,4.496e-05,0.0,0 STARLINK-4755,1 53851U 22114AK  23295.54601494  .00004496  00000-0  30028-3 0  9995,2 53851  53.2175 235.6307 0001953  76.0719 284.0490 15.08855632 61761,6917.833,95.437,541.049,538.347,0.0
53851.0,STARLINK-4755,PAYLOAD,2023-10-23 03:24:44,15.08825552,0.0001577,53.217,232.9559,77.1671,282.9497,-7.4586e-05,-1.474e-05,0.0,0 STARLINK-4755,1 53851U 22114AK  23296.14218365 -.00001474  00000-0 -74586-4 0  9996,2 53851  53.2170 232.9559 0001577  77.1671 282.9497 15.08825552 61319,6917.925,95.438,540.881,538.699,0.0
53851.0,STARLINK-4755,PAYLOAD,2023-10-23 12:57:03,15.08828828,0.0001559,53.2168,231.1737,79.6255,280.4913,0.00081007,0.00012624,0.0,0 STARLINK-4755,1 53851U 22114AK  23296.53962962  .00012624  00000-0  81007-3 0  9990,2 53851  53.2168 231.1737 0001559  79.6255 280.4913 15.08828828 61911,6917.915,95.438,540.858,538.701,0.0
53851.0,STARLINK-4755,PAYLOAD,2023-10-24 03:15:32,15.08859892,0.0001479,53.216,228.4967,78.6028,281.513,0.0016147,0.00025517,0.0,0 STARLINK-4755,1 53851U 22114AK  23297.13578751  .00025517  00000-0  16147-2 0  9993,2 53851  53.2160 228.4967 0001479  78.6028 281.5130 15.08859892 61463,6917.82,95.436,540.708,538.661,0.0
53851.0,STARLINK-4755,PAYLOAD,2023-10-24 12:47:50,15.08851885,0.0001711,53.2165,226.7133,76.978,283.1403,0.00066233,0.00010272,0.0,0 STARLINK-4755,1 53851U 22114AK  23297.53322662  .00010272  00000-0  66233-3 0  9999,2 53851  53.2165 226.7133 0001711  76.9780 283.1403 15.08851885 61521,6917.844,95.437,540.893,538.525,0.0
53851.0,STARLINK-4755,PAYLOAD,2023-10-25 04:41:41,15.08857499,0.0001501,53.2159,223.7368,91.1341,268.9823,0.00055199,8.512e-05,0.0,0 STARLINK-4755,1 53851U 22114AK  23298.19562157  .00008512  00000-0  55199-3 0  9990,2 53851  53.2159 223.7368 0001501  91.1341 268.9823 15.08857499 61625,6917.827,95.436,540.73,538.654,0.0
53851.0,STARLINK-4755,PAYLOAD,2023-10-25 22:10:56,15.08840692,0.0001612,53.217,220.4685,75.1695,284.9476,0.0001369,1.891e-05,0.0,0 STARLINK-4755,1 53851U 22114AK  23298.92426738  .00001891  00000-0  13690-3 0  9998,2 53851  53.2170 220.4685 0001612  75.1695 284.9476 15.08840692 62272,6917.878,95.438,540.858,538.628,0.0
53851.0,STARLINK-4755,PAYLOAD,2023-10-26 01:21:42,15.08843617,0.0001543,53.2173,219.8729,82.284,277.8327,0.00010986,1.461e-05,0.0,0 STARLINK-4755,1 53851U 22114AK  23299.05674679  .00001461  00000-0  10986-3 0  9990,2 53851  53.2173 219.8729 0001543  82.2840 277.8327 15.08843617 61758,6917.869,95.437,540.802,538.667,0.0
53851.0,STARLINK-4755,PAYLOAD,2023-10-27 01:12:29,15.08860793,0.0001638,53.2173,215.4106,89.2496,270.8684,0.00056552,8.729e-05,0.0,0 STARLINK-4755,1 53851U 22114AK  23300.05033974  .00008729  00000-0  56552-3 0  9993,2 53851  53.2173 215.4106 0001638  89.2496 270.8684 15.08860793 61908,6917.817,95.436,540.815,538.549,0.0
53851.0,STARLINK-4755,PAYLOAD,2023-10-27 21:52:30,15.08844835,0.0001519,53.2175,211.5452,108.6566,251.4591,0.00017036,2.425e-05,0.0,0 STARLINK-4755,1 53851U 22114AK  23300.91146353  .00002425  00000-0  17036-3 0  9995,2 53851  53.2175 211.5452 0001519 108.6566 251.4591 15.08844835 62578,6917.866,95.437,540.781,538.68,0.0
53851.0,STARLINK-4755,PAYLOAD,2023-10-28 01:03:16,15.08836726,0.0001568,53.218,210.9503,102.7737,257.343,4.4367e-05,4.18e-06,0.0,0 STARLINK-4755,1 53851U 22114AK  23301.04394531  .00000418  00000-0  44367-4 0  9991,2 53851  53.2180 210.9503 0001568 102.7737 257.3430 15.08836726 62053,6917.89,95.438,540.84,538.671,0.0
53851.0,STARLINK-4755,PAYLOAD,2023-10-28 10:35:35,15.0883561,0.0001437,53.2179,209.1649,101.0248,259.0906,0.00010133,1.325e-05,0.0,0 STARLINK-4755,1 53851U 22114AK  23301.44138729  .00001325  00000-0  10133-3 0  9991,2 53851  53.2179 209.1649 0001437 101.0248 259.0906 15.08835610 62650,6917.894,95.438,540.753,538.765,0.0
53851.0,STARLINK-4755,PAYLOAD,2023-10-28 21:43:17,15.0884024,0.0001609,53.2181,207.0869,107.2383,252.8785,0.00019838,2.871e-05,0.0,0 STARLINK-4755,1 53851U 22114AK  23301.90506910  .00002871  00000-0  19838-3 0  9991,2 53851  53.2181 207.0869 0001609 107.2383 252.8785 15.08840240 62722,6917.88,95.438,540.858,538.632,0.0
53851.0,STARLINK-4755,PAYLOAD,2023-10-29 10:26:23,15.08845043,0.0001519,53.217,204.7062,94.8052,265.3114,0.00080216,0.00012503,0.0,0 STARLINK-4755,1 53851U 22114AK  23302.43499046  .00012503  00000-0  80216-3 0  9992,2 53851  53.2170 204.7062 0001519  94.8052 265.3114 15.08845043 62263,6917.865,95.437,540.781,538.679,0.0
53851.0,STARLINK-4755,PAYLOAD,2023-10-29 18:23:19,15.08836264,0.000154,53.2177,203.2221,103.4267,256.6897,0.00013149,1.805e-05,0.0,0 STARLINK-4755,1 53851U 22114AK  23302.76619286  .00001805  00000-0  13149-3 0  9992,2 53851  53.2177 203.2221 0001540 103.4267 256.6897 15.08836264 62312,6917.892,95.438,540.822,538.691,0.0
53851.0,STARLINK-4755,PAYLOAD,2023-10-29 21:34:05,15.08842106,0.0002289,53.218,202.6302,110.5275,249.5963,0.00022554,3.303e-05,0.0,0 STARLINK-4755,1 53851U 22114AK  23302.89867286  .00003303  00000-0  22554-3 0  9996,2 53851  53.2180 202.6302 0002289 110.5275 249.5963 15.08842106 62876,6917.874,95.437,541.322,538.155,0.0
53851.0,STARLINK-4755,PAYLOAD,2023-10-30 21:24:52,15.08829756,0.0001735,53.2175,198.1667,91.7156,268.4034,-7.8527e-05,-1.537e-05,0.0,0 STARLINK-4755,1 53851U 22114AK  23303.89227850 -.00001537  00000-0 -78527-4 0  9995,2 53851  53.2175 198.1667 0001735  91.7156 268.4034 15.08829756 63029,6917.912,95.438,540.977,538.576,0.0
53851.0,STARLINK-4755,PAYLOAD,2023-10-31 02:11:02,15.08839364,0.000172,53.2174,197.2716,89.0807,271.0382,6.8367e-05,8e-06,0.0,0 STARLINK-4755,1 53851U 22114AK  23304.09099690  .00000800  00000-0  68367-4 0  9998,2 53851  53.2174 197.2716 0001720  89.0807 271.0382 15.08839364 62515,6917.882,95.438,540.937,538.557,0.0
53851.0,STARLINK-4755,PAYLOAD,2023-10-31 10:07:57,15.08840553,0.000151,53.2169,195.785,89.2892,270.8274,6.5234e-05,7.5e-06,0.0,0 STARLINK-4755,1 53851U 22114AK  23304.42219564  .00000750  00000-0  65234-4 0  9993,2 53851  53.2169 195.7850 0001510  89.2892 270.8274 15.08840553 63109,6917.879,95.438,540.788,538.699,0.0
53851.0,STARLINK-4755,PAYLOAD,2023-10-31 22:51:02,15.08850951,0.0001408,53.2153,193.4076,91.7055,268.4098,0.00032935,4.959e-05,0.0,0 STARLINK-4755,1 53851U 22114AK  23304.95211186  .00004959  00000-0  32935-3 0  9999,2 53851  53.2153 193.4076 0001408  91.7055 268.4098 15.08850951 63180,6917.847,95.437,540.686,538.738,0.0
53851.0,STARLINK-4755,PAYLOAD,2023-11-01 02:01:48,15.0885874,0.0001457,53.2155,192.8124,92.2758,267.8401,0.00047771,7.327e-05,0.0,0 STARLINK-4755,1 53851U 22114AK  23305.08458911  .00007327  00000-0  47771-3 0  9999,2 53851  53.2155 192.8124 0001457  92.2758 267.8401 15.08858740 62666,6917.823,95.436,540.696,538.68,0.0
53851.0,STARLINK-4755,PAYLOAD,2023-11-01 09:58:44,15.0884059,0.0001983,53.218,191.326,81.1393,278.9823,9.86e-05,1.281e-05,0.0,0 STARLINK-4755,1 53851U 22114AK  23305.41579680  .00001281  00000-0  98600-4 0  9994,2 53851  53.2180 191.3260 0001983  81.1393 278.9823 15.08840590 62716,6917.879,95.438,541.115,538.372,0.0
53851.0,STARLINK-4755,PAYLOAD,2023-11-01 22:41:49,15.08840649,0.00014,53.2169,188.9452,88.6387,271.4765,0.000105,1.384e-05,0.0,0 STARLINK-4755,1 53851U 22114AK  23305.94571514  .00001384  00000-0  10500-3 0  9996,2 53851  53.2169 188.9452 0001400  88.6387 271.4765 15.08840649 63334,6917.878,95.438,540.712,538.775,0.0
53851.0,STARLINK-4755,PAYLOAD,2023-11-02 09:49:31,15.08848053,0.00014,53.216,186.8647,87.9943,272.121,0.0001865,2.682e-05,0.0,0 STARLINK-4755,1 53851U 22114AK  23306.40939135  .00002682  00000-0  18650-3 0  9991,2 53851  53.2160 186.8647 0001400  87.9943 272.1210 15.08848053 63406,6917.856,95.437,540.689,538.752,0.0
53851.0,STARLINK-4755,PAYLOAD,2023-11-02 20:57:13,15.08845635,0.0001516,53.2154,184.7845,83.7109,276.4056,0.0001133,1.516e-05,0.0,0 STARLINK-4755,1 53851U 22114AK  23306.87307219  .00001516  00000-0  11330-3 0  9997,2 53851  53.2154 184.7845 0001516  83.7109 276.4056 15.08845635 62937,6917.863,95.437,540.777,538.679,0.0
53851.0,STARLINK-4755,PAYLOAD,2023-11-02 22:32:36,15.08847757,0.0001627,53.2153,184.4854,91.3429,268.775,0.00012958,1.775e-05,0.0,0 STARLINK-4755,1 53851U 22114AK  23306.93931058  .00001775  00000-0  12958-3 0  9992,2 53851  53.2153 184.4854 0001627  91.3429 268.7750 15.08847757 63489,6917.857,95.437,540.847,538.596,0.0
